MOLNIYA 2-9             
1 07276U 74026A   24158.11172882  .00000115  00000+0  00000+0 0  9996
2 07276  64.2918 129.9523 6437255 271.1668  21.2102  2.45098110266853
MOLNIYA 2-10            
1 07376U 74056A   24154.88120967  .00000480  00000+0  00000+0 0  9992
2 07376  65.1526  18.3992 6846627 279.4693  14.8519  2.01061071364763
MOLNIYA 1-S             
1 07392U 74060A   24158.57083361 -.00000322  00000+0  00000+0 0  9997
2 07392   3.2735 270.9137 0009997 234.6490  60.2536  1.00242830126746
MOLNIYA 1-29            
1 07780U 75036A   24157.99863800  .00000120  00000+0 -61299-1 0  9996
2 07780  63.4671 140.6282 6708678 284.0062  14.4408  2.00584790360058
MOLNIYA 2-14            
1 08195U 75081A   24158.17937637  .00000477  00000+0  00000+0 0  9993
2 08195  63.6241 113.5186 6706014 288.8547  13.0697  2.02057417357434
MOLNIYA 1-32            
1 08601U 76006A   24158.43630753  .00000156  00000+0  00000+0 0  9995
2 08601  63.6532 209.6265 6843804 282.1751  14.2108  2.00088789 67068
MOLNIYA 1-36            
1 09880U 77021A   24154.04297514 -.00000903  00000+0  00000+0 0  9991
2 09880  63.5893 185.4037 6770033 287.1078  13.2272  2.00757562243727
MOLNIYA 3-8             
1 10455U 77105A   24155.28892650 -.00000641  00000+0  00000+0 0  9992
2 10455  63.6264 257.2381 7072593 282.1328  12.6832  2.00441182341520
MOLNIYA 1-40            
1 10925U 78055A   24157.43133617 -.00000735  00000+0  00000+0 0  9993
2 10925  63.9099 307.7847 7156766 279.5198  12.6966  2.00553673337105
MOLNIYA 3-10            
1 11057U 78095A   24155.86572243  .00000145  00000+0  13097-2 0  9998
2 11057  63.2787 140.8901 5658969 314.7642  11.1614  4.09907228413145
MOLNIYA 3-13            
1 11896U 80063A   24157.70226642 -.00000290  00000+0  00000+0 0  9990
2 11896  63.3224  37.3398 7324761 278.1603  11.9441  2.00582354321529
MOLNIYA 1-52            
1 13012U 81123A   24153.20440686  .00001691  00000+0  21488-1 0  9997
2 13012  61.5246 179.4366 7156936 264.2326  17.8180  2.00678699310917
MOLNIYA 1-53            
1 13070U 82015A   24157.38010132 -.00001027  00000+0  25416-2 0  9994
2 13070  62.6617 129.7418 6937314 283.2998  13.1610  2.00481465309685
MOLNIYA 3-20            
1 13875U 83015A   24156.74039834 -.00000687  00000+0 -41536-2 0  9990
2 13875  62.0849 243.0656 7194336 265.9970  16.8846  2.00816161238126
MOLNIYA 1-63            
1 15429U 84124A   24157.80483961 -.00000898  00000+0  00000+0 0  9992
2 15429  63.6519  90.9956 7034746 256.2585  17.9537  2.00863208289184
MOLNIYA 3-24            
1 15738U 85040A   24157.54030927  .00000028  00000+0  24987-3 0  9992
2 15738  62.8248 301.0084 6910389 249.4891  28.0087  2.55652137322250
MOLNIYA 3-27            
1 16393U 85117A   24158.10050201 -.00000112  00000+0  00000+0 0  9996
2 16393  63.4312 339.1280 7174419 245.6911  27.2807  2.12399914289465
MOLNIYA 1-69            
1 17078U 86089A   24157.72624806 -.00000885  00000+0  00000+0 0  9998
2 17078  63.8473 111.8043 7021415 252.9425  24.5518  2.00479466275268
MOLNIYA 3-31            
1 17328U 87008A   24156.67172481 -.00000760  00000+0 -13293-2 0  9992
2 17328  63.2797  31.0054 7380164 253.3658  20.3248  2.00600086270270
MOLNIYA 1-71            
1 18946U 88017A   24156.65622433  .00000192  00000+0  99108-3 0  9992
2 18946  63.0137  17.9672 7456998 258.0490  17.4145  2.00658797265467
MOLNIYA 1-75            
1 19807U 89014A   24155.44952716  .00000288  00000+0  00000+0 0  9998
2 19807  63.8369 211.6086 6618963 261.9079  23.9611  2.00566703258432
MOLNIYA 1-80            
1 21118U 91012A   24157.30271630 -.00000760  00000+0  00000+0 0  9999
2 21118  65.0186 259.6850 6498421 267.8741  22.2165  2.05247995245737
MOLNIYA 3-40            
1 21196U 91022A   24157.51960793  .00001069  00000+0  00000+0 0  9996
2 21196  64.8317 253.7555 6530771 265.0683  23.2589  2.02997925244285
MOLNIYA 1-81            
1 21426U 91043A   24156.82302106  .00000087  00000+0  00000+0 0  9995
2 21426  63.5717 257.2544 6867577 263.2609  20.9400  2.00594581241577
MOLNIYA 3-41            
1 21706U 91065A   24157.74638880 -.00001414  00000+0  00000+0 0  9999
2 21706  63.8786  77.2963 7245818 251.1992  22.9898  2.04358633241564
MOLNIYA 3-42            
1 22178U 92067A   24157.37088977  .00000136  00000+0  00000+0 0  9990
2 22178  64.6703 139.2655 6597569 255.4500  27.7539  2.20434916 95904
MOLNIYA 1-86            
1 22671U 93035A   24158.50953213  .00001243  00000+0  99177-3 0  9991
2 22671  63.0238 177.0608 4892526  18.6174 354.4140  5.63309268392832
MOLNIYA 1-87            
1 22949U 93079A   24156.76505215  .00000955  00000+0  00000+0 0  9990
2 22949  64.8923   7.6281 6976417 278.2676  14.2591  2.02859600 89508
MOLNIYA 1-88            
1 23420U 94081A   24158.08497789 -.00000091  00000+0  00000+0 0  9994
2 23420  64.4298  34.9036 5900977 270.1005  26.4942  3.34493372137773
MOLNIYA 3-47            
1 23642U 95042A   24157.75166053  .00000978  00000+0  00000+0 0  9991
2 23642  64.9596 349.4339 6957738 278.3096  14.3521  2.01932443211540
MOLNIYA 1-90            
1 24960U 97054A   24158.23155410 -.00000085  00000+0  36205-2 0  9998
2 24960  64.2748   0.8422 6095649 291.7733  15.8767  3.18686138230947
MOLNIYA 1-91            
1 25485U 98054A   24157.81634295 -.00000088  00000+0  00000+0 0  9992
2 25485  63.9763  37.3099 6824613 290.5817  11.9141  2.36441963196048
MOLNIYA 3-50            
1 25847U 99036A   24157.25255818 -.00000054  00000+0 -98957-2 0  9998
2 25847  63.4617 235.1028 7017038 282.2936  13.0561  2.00594651182531
